ONEWEB-0685             
1 54679U 22166AP  23059.25001157 -.00683608  00000+0 -57488+0 0  9991
2 54679  87.1045 126.2137 0006275  11.8198 174.3545 13.91089091 12506
ONEWEB-0685             
1 54679U 22166AP  23059.58334491 -.00603209  00000+0 -50845+0 0  9996
2 54679  87.1118 126.1088 0006315   9.7527  44.4229 13.90587938  1302
ONEWEB-0685             
1 54679U 22166AP  23060.00001157 -.00617598  00000+0 -52630+0 0  9995
2 54679  87.1205 125.9798 0006082   9.3894 329.0045 13.90021838 12614
ONEWEB-0685             
1 54679U 22166AP  23060.58334491 -.00607073  00000+0 -52405+0 0  9995
2 54679  87.1328 125.7976 0006061   7.3881   7.4776 13.89226123 12695
ONEWEB-0685             
1 54679U 22166AP  23061.00001157 -.00618094  00000+0 -53927+0 0  9998
2 54679  87.1416 125.6701 0005847   7.5668 289.4777 13.88659387  1304
ONEWEB-0685             
1 54679U 22166AP  23061.25001157 -.00734759  00000+0 -64446+0 0  9990
2 54679  87.1466 125.5927 0005979   6.6675  99.2511 13.88380605 12783
ONEWEB-0685             
1 54679U 22166AP  23061.83334491 -.00956146  00000+0 -85677+0 0  9999
2 54679  87.1572 125.4138 0005898   5.7267 133.0399 13.87437225  1308
ONEWEB-0685             
1 54679U 22166AP  23062.50001157 -.00865975  00000+0 -79637+0 0  9992
2 54679  87.1693 125.2098 0005668   2.0748 222.9557 13.86127493 12964
ONEWEB-0685             
1 54679U 22166AP  23062.58334491 -.00863651  00000+0 -79615+0 0  9995
2 54679  87.1707 125.1845 0005543   0.8188 279.7818 13.85977501  1303
ONEWEB-0685             
1 54679U 22166AP  23062.91667824 -.00908987  00000+0 -84167+0 0  9991
2 54679  87.1763 125.0843 0005668   0.5849 141.8208 13.85363990  1304
